Restaurant,Town,Borough,Address,Service,Phone,Website,Merch,Gift cards,Other
Melanies Roti & Grill,Castle Hill,Bronx,1248 Castle Hill Road,pickup + delivery,(718) 409-1088,http://www.melaniesrotigrillrestaurant.com/index.html,,,
Juices for Life,Castle Hill / E Tremont,Bronx,"1026 Castle Hill Ave, The Bronx, NY 10465",Pickup,(347) 281-9844,http://juicesforlife.nyc/,,,
Jenny's Roti Shop,Castle Hill,Bronx,"1262 Castle Hill Ave, The Bronx, NY 10462",pickup + delivery,(347) 281-8558,https://www.facebook.com/Jennys-Roti-Shop-119225291482525/,,,
Juiceade,Claremont Village,Bronx,"1345 Southern Blvd Store 1, The Bronx, NY 10459",pickup + delivery,(718) 991-6369,https://www.juiceade.com/,,,
Jimmy's On the Go,Morrisania,Bronx,"536 E 168th St, The Bronx, NY 10456",pickup,(718) 842-2324,,,,
Corner Style Jamaican,Concourse,Bronx,"1195 Walton Ave, The Bronx, NY 10452",pickup + delivery,(718) 410-8460,,,,
Sam's Soulfood,Concourse,Bronx,"598 Grand Concourse, The Bronx, NY",pickup + delivery,718-665-1409,http://www.samssoulfood.com/,,,
Fish 'N Ting,Eastchester,Bronx,"4063 Boston Rd, The Bronx, NY 10466",pickup + delivery,(718) 881-6116,,,,
Nabaya,Fordham,Bronx,"860 Melrose Ave, The Bronx, NY 10451",pickup + delivery,(718) 401-2283,,,,
King Sunshine Jerk Center,Parkchester,Bronx,"1853 Westchester Ave, The Bronx, NY 10472",Pickup + delivery,,,,,
Next Stop Vegan,Parkchester,Bronx,1818 Archer Street,Pickup / Pre-order,(347) 398-8166,https://nextstopvegan.com/,,,
Lloyd's Carrot Cake,Riverdale,Bronx,"6087 Broadway, The Bronx, NY 10471","pickup, delivery, & nationwide shipping",(718) 548-9020,https://www.lloydscarrotcake.com/,,,
Accra Restaurant,Soundview,Bronx,"2041 Davidson Ave, The Bronx, NY 10453",pickup + delivery,(718) 584-8500,https://www.facebook.com/AccraRestaurant/?rf=212498742294230,,,
Cea-Lo Cafe,Soundview,Bronx,"1003 Soundview Ave, The Bronx, NY 10472",pickup + delivery,(718) 620-0337,https://www.cealocafe.com/menu,,,
Fouta Halal,Soundview,Bronx,"1762 Westchester Ave, The Bronx, NY 10472",,(718) 792-1700,https://www.allmenus.com/ny/bronx/214490-fouta-africanamerican-restaurant/menu/,,,
Taste So Good (Make You Wanna Slap Your Mama),Soundview,Bronx,"1752 Lafayette Ave, The Bronx, NY 10473",pickup + delivery,(347) 271-6506,https://www.instagram.com/tastesogoodbx/?hl=en,,,
Beatstro,South Bronx,Bronx,"135 Alexander Ave, The Bronx, NY 10454",pickup,(718) 489-9397,https://www.beatstro.com/,,,
Bricks and Hops,South Bronx,Bronx,"65 Bruckner Boulevard, Bronx, NY",pickup,718-450-3991,https://www.bricksandhops.com/menu,,,
Flava's International Grill,South Bronx,Bronx,"854 Gerard Ave, The Bronx, NY 10451",pickup + 3rd party delivery,718-292-2900,https://www.facebook.com/flavasbx/,,,
Margarita's,South Bronx,Bronx,"915 Avenue St John, The Bronx, NY 10455",,,,,,
Papaye,South Bronx,Bronx,"2300 Grand Concourse, The Bronx, NY 10458",pickup + delivery,718-676-0771,,,,
Paula’s Soul Food,Wakefield,Bronx,"746 E 233rd St, Bronx, NY 10466",pickup + delivery,718-655-1022,http://paulasoulfood.com/about.html,,,
Soul Snacks Cafe,Westchester Square,Bronx,"901 E. 134 Street Bronx, NY 10454",pick up and delivery,(347) 398-8917,,,,
A&A Bake Doubles and Roti Shop,Bed Stuy,Brooklyn,"1337 Fulton St, Brooklyn, NY 11216",pick up,(347) 425-0016,,,,
Basquiat's Bottle,Bed Stuy,Brooklyn,"1198 Fulton St, Brooklyn, NY 11216",pick up and delivery,(347) 533-8288,https://www.toasttab.com/basquiats-bottle/v3?utmSource=eGiftCardsTile,,,
Bed Stuy Fish Fry,Bed Stuy / Clinton Hill / Crown Heights,Brooklyn,801 Halsey St. + 3 additional locations,pickup + delivery,,https://bedstuyfishfry.com/,,,
Bed Vyne Wine (wine shop),Bed Stuy,Brooklyn,"385 Tompkins Ave, Brooklyn, NY 11216",pick up and delivery,(347) 915-1080,https://wine.bed-vyne.com/,,,
BKLYN Blend,Bed Stuy,Brooklyn,"194 Tompkins Ave Brooklyn, NY",pickup + delivery,(718) 484-2247,http://www.bklynblend.com/,,,
BK Lobster,Bed Stuy,Brooklyn,"535 Nostrand Ave, Brooklyn, NY 11216",pick up and delivery,(347) 365-4040,https://bklobster.com/,,,
Black Nile,Bed Stuy,Brooklyn,"592 Nostrand Ave, Brooklyn, NY 11216",,347-879-8911,https://blacknilerestaurant.com/,,,
Brooklyn Baby Cakes,Bed Stuy,Brooklyn,"506 Nostrand Ave, Brooklyn, NY 11216",pick up + 3rd party delivery,(718) 484-8466,https://brooklynbabycakes.com/,,,
Brooklyn Beso,Bed Stuy,Brooklyn,"370 Lewis Ave, Brooklyn, NY 11233",pick up & delivery ,(347) 915-2900,http://www.brooklynbeso.com,,,
Brooklyn Kettle,Bed Stuy,Brooklyn,"420 Putnam Ave, Brooklyn, NY 11216",pick up,(347) 365-3497,https://www.brooklynkettle.com/,,,
Brooklyn Tea,Bed Stuy,Brooklyn,"524 Nostrand Ave, Brooklyn, NY 11216",pickup + shipping,347-240-4281,https://brooklyntea.com/,,,
Brown Butter Craft Bar & Kitchen,Bed Stuy,Brooklyn,"413 Tompkins Ave, Brooklyn, NY 11216",pick up & delivery ,(347) 683-2116,https://brownbutternyc.com/,,,
The Bush Doctor Juice Bar,Bed Stuy,Brooklyn,"307 Tompkins Ave, Brooklyn, NY 11216",pick up and delivery,(718) 594-7607,http://www.thebushdoctor.net/,,,
Cafe on Ralph,Bed Stuy,Brooklyn,"86 Ralph Ave, Brooklyn, NY 11221",pick up & delivery ,(347) 413-5753,http://cafeonralphavenue.com,,,Open for grocery delivery. 
El Jeffe Modern Mexican Grill,Bed Stuy,Brooklyn,"1483 Fulton St, Brooklyn, NY 11216",Pick up and delivery,(347) 365-8919,,,,
The Council Cafe,Bed Stuy,Brooklyn,"279 Nostrand Ave, Brooklyn, NY 11216",pickup + delivery,(347) 240-8778,https://www.thecouncilcafe.com/,,,
Cuts and Slices,Bed Stuy,Brooklyn,"93 Howard Ave, Brooklyn, NY 11233",pickup + delivery,(718) 552-2652,https://www.cutsslices.com/,,,
Daddy Greens Pizza,Bed Stuy,Brooklyn,"1552 Fulton St, Brooklyn, NY 11216",pick up + delivery,(718) 484-2142,https://www.daddygreenspizza.com/,,,
Doctor's Cave Cafe,Bed Stuy,Brooklyn,"856 Marcy Ave, Brooklyn, NY 11216",pick up,(718) 398-4776,http://doctorscavecafe.com/,,,
Drip Coffee Makers,Bed Stuy  (Bushwick border),Brooklyn,"12 Belvidere St., Brooklyn, NY 11206",takeout,(917) 704-6742,https://www.dripcoffeenyc.com/,,,
"Grandchamps	",Bed Stuy,Brooklyn,"197 Patchen Ave, Brooklyn, NY 11233",pickup + delivery,"(718) 484-4880	",http://www.grandchamps.nyc/,,,
Greedi Vegan Kitchen,Bed Stuy,Brooklyn,"180 Ralph Ave, Brooklyn, NY 11233",pickup + delivery,(347) 533-8045,https://greedi-kitchen.com/#,,,
Happy Cork (wine shop),Bed Stuy,Brooklyn,"51 Buffalo Ave, Brooklyn, NY 11233",pick up & delivery ,347.985.9067,https://happy-cork.com/,,,
Joloff Restaurant,Bed Stuy,Brooklyn,"1168 Bedford Ave #1617, Brooklyn, NY 11216",pick up and delivery ,(718) 230-0523,https://www.joloffjoloff.com/,,,
Le Paris Dakar,Bed Stuy,Brooklyn,"518 Nostrand Ave, Brooklyn, NY 1121",pickup + delivery,(347) 955-4100,https://www.leparisdakar.com/,,,https://www.gofundme.com/f/le-paris-dakar?utm_source=customer&utm_medium=copy_link-tip&utm_campaign=p_cp+share-sheet
Milk and Pull,Bed Stuy,Brooklyn,"307 Malcolm X Blvd, Brooklyn, NY 11233",pick up,13476278511,https://milkandpull.square.site/,,,
Nyammings Caribbean Cuisine,Bed Stuy,Brooklyn,"355 Franklin Ave, Brooklyn, NY 11238",pick up,(718) 230-9700,,,,
The Mixtape Shop Cafe,Bed Stuy,Brooklyn,"1129 Bedford Ave, Brooklyn, NY 11216",coffee shop open for takeout on weekends,(347) 529-0222,https://themixtapeshop.com/,,,
Natural Blend Cafe,Bed Stuy,Brooklyn,"243 Malcolm X Blvd, Brooklyn, NY 11233",pick up and delivery,(347) 378-2440,http://naturalblendcafe.com/,,,
Peaches Hothouse Bed Stuy,Bed Stuy,Brooklyn,"415 Tompkins Ave, Brooklyn, NY 11216",pick up & delivery,(718) 483-9111,http://www.bcrestaurantgroup.com/hothouse,,,
Peaches Kitchen & Bar,Bed Stuy,Brooklyn,"393 Lewis Ave, Brooklyn, NY 11233",pick up and delivery,718-942-4162,http://www.bcrestaurantgroup.com/peaches,,,
Rustik Tavern,Bed Stuy ,Brooklyn,"471 Dekalb Ave, Brooklyn, NY 11205",pickup + delivery,(347) 406-9700,http://rustiktavern.com/,,,
Ricky's,Bed Stuy,Brooklyn,"1501 Fulton St, Brooklyn, NY 11216",pick up and delivery,(347) 240-1900,,,,
Liquid Assets (wine shop),Bed Stuy,Brooklyn,"504 Nostrand Ave, Brooklyn, NY 11216",pickup + delivery,(718) 676-0757,www.liquidassetsbk.com,,,
Sally's,Bed Stuy,Brooklyn,"151 Tompkins Ave Brooklyn, NY 11206",pick up,(718) 388-8788,https://www.sallysbk.com/,,,
Secret Garden Juice Bar and Tea House,Bed Stuy,Brooklyn,"347 Lewis Ave, Brooklyn, NY 11233",pick up,(347) 221-0719,https://www.instagram.com/bk_secretgarden/?hl=en,,,
"Sincerely, Tommy",Bed Stuy,Brooklyn,"343 Tompkins Ave, Brooklyn, NY 11216",pick up,(718) 484-8484,https://sincerelytommy.com/,,,
Shipwreck Seafood Boutique,Bed Stuy,Brooklyn,"1047 Bedford Ave, Brooklyn, NY 11216",pick up,(718) 484-7611,https://shipwreckseafoodbrooklyn.business.site/,,,
Spudz,Bed Stuy,Brooklyn,"1460 Fulton St, Brooklyn, NY 11216",pick up and delivery,(347) 295-1966,https://spudznyc.com/,,,
Sophia & Grace Cookie Co.,Bed-Stuy / Ocean Hieghts,Brooklyn,"163 Ralph Ave, Brooklyn, NY 11233",pickup + delivery,718-450-8034,https://www.instagram.com/sgcookiesco/?hl=en,,,
Taylor Made Jamaican Eatery,Bed Stuy,Brooklyn,"393 Classon Ave, Brooklyn, NY 11238",pick up and delivery,(718) 484-2310,http://www.taylormadejamaicaneatery.com/,,,
Zaca Cafe,Bed Stuy,Brooklyn,"426 Marcus Garvey Blvd, Brooklyn, NY 11216",pick up and delivery,(718) 443-2500,https://www.zacacafe.com/,,,
The Armory,Boerum Hill / Park Slope,Brooklyn,"67 4th Ave, Brooklyn, NY 11217",pickup + delivery drinks & veg boxes ,19293378476,https://www.thearmorybk.com/,,,
The Soul Spot ,Boerum Hill / Park Slope,Brooklyn,"302 Atlantic Ave, Brooklyn, NY 11201",pick up & delivery,(718) 596-9933,https://soulspotrestaurant.com/,,,
Bunna Cafe,Bushwick ,Brooklyn,"1084 Flushing Ave, Brooklyn, NY 11237",pickup + delivery,"(347) 295-2227	",https://bunnaethiopia.net/,,,
Hills Kitchen,Bushwick,Brooklyn,"252 Knickerbocker Ave, Brooklyn, NY 11237",pickup + delivery,(929) 480-8775,hillskitchenonline.com,,,
Paradis des Gouts,Bushwick,Brooklyn,"1136 Broadway, Brooklyn, NY 11221",closed,,,,,
Sol Sips,Bushwick ,Brooklyn,"203 Wilson Ave, Brooklyn, NY 11237",pickup + delivery,718-683-0482,https://www.solsipsnyc.com/ / https://www.solsips2go.com/,,,Donate to COVID-19 Meal kits: https://www.paypal.com/donate/?token=Vz8wfsAVjwJ_NtuZWoGJZPwuTMehErS-Jv58BUAcur-l8-fCu-li9U8IUqXf5WwuRu7puG&country.x=US&locale.x=US
Sally Roots,Bushwick,Brooklyn,"195 Wyckoff Ave, Brooklyn, NY 11237",pickup + delivery,(347) 425-0888,http://www.sallyroots.com/,,,
Food Sermon Kitchen,Brooklyn Navy Yard,Brooklyn,"141 Flushing Ave Building 77, Brooklyn, NY 11205",,718-484-7555,https://www.instagram.com/thefoodsermon/?hl=en,,,Closed Saturday/Sunday
Collective Fare,Brownsville,Brooklyn,"69 Belmont Ave, Brooklyn NY 11212",pickup + delivery,929.229.0029,https://www.collectivefare.com/mealsforall,,,
Honey Bee's Kitchen,Canarsie,Brooklyn,"9322 Avenue L, Brooklyn, NY 11236",pickup + delivery,(718) 975-2006,https://www.facebook.com/Honeybeeskitchen/,,,
Buka,Clinton Hill,Brooklyn,946 Fulton Street,pickup + delivery,347.763.0619,https://bukanewyork.com/,,,
Brooklyn Sweet Spot,Clinton Hill,Brooklyn,"366 Myrtle Ave, Brooklyn, NY 11205",pick up,(347) 916-0494,,,,
Baby Jane,Clinton Hill,Brooklyn,"899 Fulton St, Brooklyn, NY 11238",pick up,(646) 469-3333,,,,
Chance11 ,Clinton Hill,Brooklyn,"895 Fulton St, Brooklyn, NY 11238",,,http://chance11.com/,,,
Heritage Wines,Clinton Hill,Brooklyn,"237 Dekalb Ave, Brooklyn, NY 11205",pick up,(718) 237-1525,https://heritagewinesnyc.com/,,,
Mac Shack,Clinton Hill,Brooklyn,"901 Fulton St, Brooklyn, NY 11238",pick up and delivery,(718) 230-0727,https://www.macshackny.com/copy-of-fulton-st,,,
Sisters,Clinton Hill,Brooklyn,"900 Fulton St, Brooklyn, NY 11238",pick up,(347) 763-2537,https://www.sistersbklyn.com/,,,
Soco ,Clinton Hill ,Brooklyn,"509 Myrtle Ave, Brooklyn, NY 11205",pickup + delivery,718)-783-1936,http://socobk.com/,,,
Wray's,Clinton Hill,Brooklyn,"503 Myrtle Ave, Brooklyn, NY 11205",pick up and delivery,(718) 789-1111,https://wraysrestaurant.com/,,,
95 South Soul Food Restaurant,Crown Heights,Brooklyn,"778 Franklin Ave, Brooklyn, NY 11238",pick up,(347) 750-6180,https://sites.google.com/view/95southsoulfood/home,,,
The Bergen,Crown Heights,Brooklyn,"1299 Bergen St, Brooklyn, NY 11213",pick up & delivery,(347) 240-7046,http://www.thebergenbk.com,,Cash App: $bu2018 or Venmo: $thebergenbk to donate to free lunch program. ,Provides lunches to students. 
Essence Restaurant and Bar,Crown Heights,Brooklyn,"1662 Atlantic Ave, Brooklyn, NY 11213",pick up and delivery,(718) 467-3300,https://www.essencebar.com/,,,
Bleu Fin Bar & Grill ,Crown Heights,Brooklyn,"637 Nostrand Ave, Brooklyn, NY 11216",pickup + delivery,(718) 576-2500,https://bleu-fin.com/,,,
Breukelen Coffee House,Crown Heights,Brooklyn,"764 Franklin Ave, Brooklyn, NY 11238",takeout,(718) 789-7070,,,,
Brooklyn Suya,Crown Heights,Brooklyn,"717 Franklin Ave, Brooklyn, NY 11238",pickup + 3rd party delivery,718 513 0122,https://www.brooklynsuya.com/,,,
Cafe Rue Dix ,Crown Heights,Brooklyn,"1451 Bedford Ave, Brooklyn, NY 11216",pick up & delivery,929-234-2543,https://www.caferuedix.com/,,,
Coffee Spot,Crown Heights,Brooklyn,"679 Classon Ave, Brooklyn, NY 11238",pick up,(718) 616-8657,https://www.instagram.com/coffeespotbk/,,,https://www.gofundme.com/f/support-for-our-favorite-quotcoffee-spotquot?utm_source=customer&utm_medium=sms&utm_campaign=p_cp+share-sheet
Fresh Remedy,Crown Heights,Brooklyn,"354 Rogers Ave, Brooklyn, NY 11225",pick up,(718) 282-2431,https://www.instagram.com/freshremedyhealth/,,,
Greedi To Go,Crown Heights,Brooklyn,"1031 Bergen St, Brooklyn, NY 11216",Pickup and delivery ,(347) 627-7900,https://greedi-kitchen.com/#,,,
Island Pops (ice cream!),Crown Heights,Brooklyn,"680 Nostrand Ave, Brooklyn, NY 11216",pickup + delivery,(347) 232-1777,https://islandpops.com/,,,
Ital Kitchen,Crown Heights,Brooklyn,"1032 Union St, Brooklyn, NY 11225",pickup + delivery,347 405 9727,https://www.italkitchenbk.com/,,,
Irie Caribbean Kitchen and Bakery,Crown Heights,Brooklyn,"126 Utica Ave, Brooklyn, NY 11213",pick up and delivery,(347) 295-3628,,,,
Lakou Cafe,Crown Heights,Brooklyn,"195 Utica Ave, Brooklyn, NY 11213",pick up and delivery,(347) 295-0566,https://www.lakoucafe.com/,,,
Living Well Garden Juice Bar,Crown Heights,Brooklyn,"1534 St Johns Pl, Brooklyn, NY 11213",pick up,(718) 484-0860,,,,
LSC Brooklyn,Crown Heights,Brooklyn,"665 Franklin Ave Brooklyn, NY 11238",pick up,,,,,
Gloria's Caribbean Cuisine,Crown Heights,Brooklyn,"764 Nostrand Ave, Brooklyn, NY 11216",Pickup and delivery ,(718) 550-3585,https://gloriascaribbeanbrooklyn.com/17946,,,
Meme's Healthy Nibbles,Crown Heights,Brooklyn,"707 Nostrand Ave, Brooklyn, NY 11216",pickup + delivery,(718) 493-1375,http://www.memeshealthynibbles.com/,,,
Peppa's (Crown Heights),Crown Heights,Brooklyn,"791 Prospect Place, Brooklyn, NY ",pick up & delivery,718-450-3987,peppasonline.com ,,,
Pikliz Cafe and Lounge,Crown Heights,Brooklyn,"903 Franklin Ave, Brooklyn, NY 11225",pickup + 3rd party delivery,347-627-2191,https://www.instagram.com/pikliz_718/,,,
Ras Plant Based Ethiopian,Crown Heights,Brooklyn,"739 Franklin Ave, Brooklyn, NY 11238",pickup + delivery,718.622.6220,https://www.rasplantbased.com/,,,
Savvy Bistro & Bar,Crown Heights,Brooklyn,"710 Nostrand Ave, Brooklyn, NY 11216",pickup + delivery,347) 533-7880,https://savvybistro.com/,,,
Soul of the Sea,Crown Heights,Brooklyn,"527 Albany Ave, Brooklyn, NY 11203",pick up and delivery,(347) 990-9580,,,,
Sweet Brooklyn Bar & Grill,Crown Heights,Brooklyn,"608 Nostrand Ave, Brooklyn, NY 11216",pickup + delivery,(347) 425-0111,sweetbkbar.com,,,
The Crabby Shack ,Crown Heights,Brooklyn,"613 Franklin Ave, Brooklyn, NY 11238",pick up & delivery ,718 484 1507  ,https://www.thecrabbyshack.com/about-us,,,
Tamra Teahouse,Crown Heights,Brooklyn,"1524 Bergen St, Brooklyn, NY 11213",pick up and delivery,(347) 406-7710,,,,
Trinidad Golden Place,Crown Heights,Brooklyn,"788 Nostrand Ave, Brooklyn, NY 11216",pickup ,17187357065,,,,
Veggies Natural Juice Bar,Crown Heights,Brooklyn,"785 Franklin Ave, Brooklyn, NY 11238",pickup,(347) 627-3247,,,,
Amarachi Lounge,DUMBO,Brooklyn,"189 Bridge St, Brooklyn, NY 11201",,,http://amarachi325.com/,,,
Sweet Science,East Williamsburg,Brooklyn,"135 Graham Ave, Brooklyn, NY 11206",pickup + delivery,(347) 763-0872,http://www.sweetsciencebklyn.com/,,,
Akwaaba Restaurant,Flatbush,Brooklyn,"604 Parkside Ave, Brooklyn, NY 11226",pick up,(347) 985-2588,,,,
Ali's Trinidad Roti Shop,Flatbush,Brooklyn,"1267 Fulton St, Brooklyn, NY 11216",pick up and delivery,(718) 783-0316,,,,
Bake & Things,Flatbush,Brooklyn,"1489 Flatbush Ave, Brooklyn, NY 11210",pick up and delivery,(718) 434-1080,,,,
Brooklyn Perk Coffee,Flatbush,Brooklyn,"605 Flatbush Ave, Brooklyn, NY 11225",pick up,(917) 966-9331,,,,
D & P,Flatbush,Brooklyn,"3405 Church Ave, Brooklyn, NY 11203",pickup and delivery,(718) 462-3078,,,,
Errol's Caribbean Bakery,Flatbush,Brooklyn,"661 Flatbush Ave, Brooklyn, NY 11225",pick up and delivery,(718) 469-6078,,,,
Island Burger (Flatbush),Flatbush,Brooklyn,"2093 Nostrand Ave, Brooklyn, NY 11210",pickup + delivery,(347) 789-9955,www.instagram.com/islandburger/,,,
Island Express,Flatbush,Brooklyn,"998 Flatbush Ave, Brooklyn, NY 11226",pickup + delivery,718-469-9049,,,,
Jen's Roti Shop,Flatbush,Brooklyn,"838 Flatbush Ave, Brooklyn, NY 11226",pick up and delivery,(718) 975-7313,,,,
Four Seasons Bakery and Juice Bar,Flatbush,Brooklyn,"2281 Church Ave, Brooklyn, NY 11226",pick up and delivery,(718) 693-7996,,,,
Lips Cafe,Flatbush,Brooklyn,"1412 Nostrand Ave, Brooklyn, NY 11226",pickup,(917) 387-7870,https://www.facebook.com/lipscafebk,,,
MangoSeed & Zurilee,Flatbush ,Brooklyn,"757 Flatbush Ave, Brooklyn, NY 11226",pick up & delivery,(347) 529-1080,https://www.mangoseedbrooklyn.com/,,,
Tasty Caribbean,Flatbush,Brooklyn,"856 Utica Ave, Brooklyn, NY 11203",pickup + delivery,(718) 282-8652,https://www.instagram.com/tastycaribbeanny/,,,
Suzy's Roti Parlous,Flatbush,Brooklyn,"907 Church Ave, Brooklyn, NY 11218",pick up and delivery,(718) 282-8190,https://www.suzysroti.com/,,,
Sip Unwine,Flatbush,Brooklyn,"1197 Flatbush Ave, Brooklyn, NY 11226",catering only for now ,(718) 576-6424,https://www.sipunwine.com/,,,sipunwine@gmail.com for catering
Island Burger (Wingate),Wingate,Brooklyn,"504 Utica Ave, Brooklyn, NY 11203",pickup + delivery,(718) 495-2474,www.instagram.com/islandburger/,,,
Imani Kitchen + Bar,Fort Greene,Brooklyn,"271 Adelphi Street, Brooklyn, New York, NY 11205",pickup + delivery,(718) 923-0100,https://www.imaninyc.com/,,,
Peaches Hothouse Fort Greene ,Fort Greene,Brooklyn,"87 S Elliott Pl, Brooklyn, NY 11217",pick up & delivery,718-797-1011,http://www.bcrestaurantgroup.com/hothouse-fort-greene,,,
BitterSweet,Fort Greene,Brooklyn,"180 Dekalb Ave, Brooklyn, NY 11205",pick up,(718) 852-2556,https://www.instagram.com/bittersweetcoffeebk/?hl=en,,,
Buff Patty,Fort Greene,Brooklyn,"376 Myrtle Ave, Brooklyn, NY 11205",pick up and delivery,(718) 855-3266,,,,
Bati Kitchen,Fort Greene,Brooklyn,"747 Fulton St, Brooklyn, NY 11217",pick up + delivery,(718) 797-9696,https://www.batikitchen.com/,,,
Dick and Jane's,Fort Greene,Brooklyn,"266 Adelphi St, Brooklyn, NY 11205",pick up,,http://dickandjanesbk.com/,,,
Move with Grace Juice Bar,Fort Greene,Brooklyn,"431 Myrtle Ave, Brooklyn, NY 11205",pick up and delivery,(718) 230-0013,,,,
Bleachers Sports Bar,Park Slope,Brooklyn,"240 Flatbush Ave, Brooklyn, NY 11217",pickup + delivery,(718) 857-1111,https://www.instagram.com/240bleachers/?hl=en,,,
BK9,Park Slope,Brooklyn,"62 5th Ave, Brooklyn, NY 11217",pick up and delivery,(718) 789-2176,https://www.bk9.nyc/,,,
Le Succulent,Park Slope,Brooklyn,"291 5th Ave, Brooklyn, NY 11215",pickup + delivery,347-227-8282,https://lesucculent.com/,,,
Negril Brooklyn,Park Slope,Brooklyn,"256 5th Ave, Brooklyn, NY 11215",pick up & delivery ,(347) 721-3801,https://negrilbk.com/,,,Direct app ordering available
Philly Pretzel Factory,Park Slope,Brooklyn,"131 5th Ave, Brooklyn, NY 11217",pickup + delivery,917.909.0345,https://phillypretzelfactory.com/locations/brooklyn/,,,
Ghenet,Park Slope / Gowanus,Brooklyn,"348 Douglass St, Brooklyn, NY 11217",pickup + delivery,347-689-2715‬,https://www.instagram.com/ghenetbrooklyn/?hl=en,,,
Daleview Biscuits & Beer,PLG ,Brooklyn,"1170 Nostrand Ave. Brooklyn, NY 11225",pick up,347-240-5110,https://www.biscuitsandbeer.nyc/,,,
De Hot Pot,PLG,Brooklyn,"1127 Washington Ave, Brooklyn, NY 11225",pick up,(347) 240-1180,,,,
Katie O's Soul Food,PLG,Brooklyn,"452 E New York Ave, Brooklyn, NY 11225",pickup + delivery,(718) 773-7685,http://www.katieossoulfood.com/,,,
MCG Grand Cafe,PLG,Brooklyn,"1199 Nostrand Ave, Brooklyn, NY 11225",pick up + delivery,(718) 774-0555,https://www.restaurantji.com/ny/brooklyn/mcg-grand-cafe-/,,,
Mo's Original,PLG,Brooklyn,"453 Rogers Ave, Brooklyn, NY 11225",pick up,718-513-0698,https://mosoriginalnyc.square.site/s/order,,,
Peppa's (PLG) ,PLG,Brooklyn,"738 Flatbush Ave, Brooklyn, NY 11226",pick up + delivery,(646) 683-6012,,,,
Honey Badger,PLG,Brooklyn,"67 Fenimore St, Brooklyn, NY 11225",pick up,(646) 670-0601,https://www.honeybadgerbk.com/,,,
& Sons,PLG ,Brooklyn,"447 Rogers Ave, Brooklyn, NY 11225",pick up only ,718.284.0159,andsonsnyc.com,,,
Jus Fishy,PLG,Brooklyn,"555 Flatbush Ave, Brooklyn, NY 11225",pick up and delivery,(718) 826-0616,menu: https://www.allmenus.com/ny/brooklyn/323267-jus-fishy/menu/,,,
Allan's Bakery,PLG,Brooklyn,"1109, 1111 Nostrand Ave #1107, 11225",pick up and delivery,(718) 774-7892,http://www.allansbakery.com/,,,
PLG Coffee House and Tavern,PLG,Brooklyn,"499 Rogers Ave, Brooklyn, NY 11225",pickup + delivery,(347) 413-7944,http://plgcoffeehousetavern.com/,,http://plgcoffeehousetavern.com/gift-cards,
Zanmi,PLG,Brooklyn,"1206 Nostrand Ave, Brooklyn, NY 11225",pickup + delivery,(718) 676-1047,https://www.zanminyc.com/,,,
BierWax,Prospect Heights,Brooklyn,"556 Vanderbilt Ave, Brooklyn, NY 11238",pickup + delivery,347-533-8449,https://www.bierwaxnyc.com/,,,
Mitchell's Soul Food,Prospect Heights,Brooklyn,"617 Vanderbilt Ave, Brooklyn, NY 11238",pick up,(718) 789-3212,menu: https://www.allmenus.com/ny/brooklyn/250397-mitchells-soul-food/menu/,,,
Nûrish,Prospect Heights,Brooklyn,"637 Washington Ave, Brooklyn, NY 11215",pick up and delivery,(718) 484-1122,https://www.nurishbk.com/,,,
Cheryl's Global Soul,Prospect Heights,Brooklyn,"236 Underhill Ave, Brooklyn, NY 11238",pick up & delivery,347-529-2855,https://www.cherylsglobalsoul.com/,,,
Ode to Babel/GoodLife BK,Prospect Heights,Brooklyn,"772 Dean St, Brooklyn, NY 11238",pick up ,(718) 484-3847,http://www.odetobabel.com/,,,https://www.gofundme.com/f/ode-to-babel-team?utm_medium=copy_link&utm_source=customer&utm_campaign=p_lico+share-sheet
Sugarcane ,Prospect Heights,Brooklyn,"238 Flatbush Ave, Brooklyn, NY 11217",pickup + delivery,718.230.3954,http://www.sugarcanerestaurant.com/default.aspx?pageid=1,,,
Sit & Wonder,Prospect Heights,Brooklyn,"688 Washington Ave, Brooklyn, NY 11238",pick up,(718) 622-0299,http://sitandwonder.net/index.html,,,
333 Lounge,Prospect Heights,Brooklyn,"333 Flatbush Ave, Brooklyn, NY 11217",pickup + delivery,718-399-8008,http://333lounge.com/,,,
Breukelen Rub (Spice and Seasoning shop),Sunset Park,Brooklyn,"34 35th Street, Brooklyn, NY 11232, US",Delivery only,347-547-9626,https://www.breukelenrub.com/,,,
Extra Virgin,East Village,Manhattan,"259 West 4th Street, New York, NY 10014",pick up and delivery,(212) 691-9359,,,,
Haile,East Village,Manhattan,"182 Avenue B, New York, NY 10009",,(212) 673-8949,http://hailecuisine.com,,,
Mikey Likes It,East Village,Manhattan,"199 Avenue A, New York, NY 10009",,,https://mikeylikesiticecream.com,,,
Brooklyn Chop House,Financial District,Manhattan,"150 Nassau St, New York, NY 10038",Pickup and delivery ,212-619-1200,https://www.brooklynchophouse.com,,,
Berber Street Food,Greenwich Village,Manhattan,"35 Carmine St, New York, NY 10014",pickup+ delivery,(646) 870-0495,https://berberstreetfood.com,,,
Negril Village,Greenwich Village,Manhattan,"70 W 3rd St, New York, NY 10012",pick up & delivery ,,http://negrilnyc.com/,,,
Urban Vegan Kitchen,Greenwich Village,Manhattan,"41 Carmine St, New York, NY 10014",pick up & delivery ,(646) 438-9939,https://urbanvegankitchen.com/,,,
67 Orange Street,Harlem,Manhattan,"2082 Frederick Douglass Blvd, New York, NY 10026",Pickup,(212) 662-2030,http://www.67orangestreet.com/,,,
Accra,Harlem,Manhattan,"2065 Adam Clayton Powell Jr Blvd, New York, NY 10027",pick up and delivery,(212) 932-7739,,,,
Abyssinia,Harlem,Manhattan,"268 W 135th St, New York, NY 10030",Pickup and delivery ,(212) 281-2673,https://abyssinianyc.com/,,,
Africa Kine,Harlem,Manhattan,"2267 Adam Clayton Powell Jr Blvd, New York, NY 10027",pickup and delivery ,(212) 666-9400,http://www.africakine.com/,,,
B2,Harlem,Manhattan,"271 W 119th St, New York, NY 10026",pickup,(212) 280-2248,http://b2harlem.com/,,,
Belle Harlem,Harlem,Manhattan,"2363 Adam Clayton Powell Jr Blvd, New York, NY 10030",Reserve Ahead To Go,347-819-4076,https://www.belleharlem.com/,,,
Benyam,Harlem,Manhattan,2795 Frederick Douglas Blvd,pickup and delivery ,(212) 510-7353,http://benyamcuisine.com/,,,
Blvd Bistro,Harlem,Manhattan,2149 Frederick Douglass Blvd NY NY,takeout on weekends,(212) 678-6200,http://boulevardbistrony.com/,,,
Caribbean Starr,Harlem,Manhattan,"280 Malcolm X Blvd, New York, NY 10027",pickup + delivery,(917) 261-7669,http://caribbeanstarr.com/,,,
Charles' Country Pan Fried Chicken,Harlem,Manhattan,"2461 Frederick Douglass Blvd, New York, NY 10027",pickup + 3rd party delivery,212-281-1800,https://www.facebook.com/charlespanfried/,,,
Chez Alain,Harlem,Manhattan,"2046 Adam Clayton Powell Jr Blvd, New York, NY 10027",,,,,,
Chocolat Restaurant Lounge,Harlem,Manhattan,"2223 Frederick Douglass Blvd, New York, NY 10026",,,http://chocolatharlem.com/,,,
Cove Lounge,Harlem,Manhattan,"325 Malcolm X Blvd, New York, NY 10027",,,http://covelounge.com/,,,
Field Trip,Harlem,Manhattan,"109 Malcolm X Blvd, New York, NY 10026","pick up, delivery, catering",(917) 639-3919,fieldtripnyc.com,,,
Greedy Pot,Harlem,Manhattan,"1944 Adam Clayton Powell Jr Blvd, New York, NY 10026",pickup + delivery,(917) 675-7676,https://www.facebook.com/greedypot1/,,,
Harlem Hops,Harlem,Manhattan,"2268 Adam Clayton Powell Jr Blvd, New York, NY 10030",pick up & delivery,646-998-3444,https://harlemhops.com/,,,
Harlem Seafood Soul,Harlem,Manhattan,NE Corner of W.125th St & 7th Ave,pickup,,https://www.instagram.com/harlemseafoodsoul/?hl=en,,,
Harlem Shake,Harlem,Manhattan,"100 W 124th St, New York, NY 10027",pick up and delivery,(212) 222-8300,http://places.singleplatform.com/harlem-shake/menu?ref=google,,,
Hawa Restaurant,Harlem,Manhattan,"410 Malcolm X Blvd, New York, NY 10037",pickup,917-965-2215,https://www.facebook.com/Hawa-Restaurant-109186223910971/,,,
Home Sweet Harlem,Harlem,Manhattan,"1528 Amsterdam Ave, New York, NY 10031",pickup + delivery,(212) 926-9616,https://homesweetharlem.nyc/,,,
Island Bites,Harlem,Manhattan,"2107 1st Avenue, New York, NY 10029",pickup + delivery,(646) 850-8855,https://www.instagram.com/islandbitesnyc/,,,
King Barka,Harlem,Manhattan,"301 W 135th St, New York, NY 10030",pickup + delivery,(646) 952-0394,,,,
Lee Lee's Baked Goods,Harlem,Manhattan,"283 West 118th StreetNew York, NY 10026",,(917) 493-6633,https://www.leeleesrugelach.com,,,
Lighthouse Fish Market,Harlem,Manhattan,"2451 Frederick Douglass Blvd, New York, NY 10027",pickup ,,http://lighthousefishmarket.com/,,,
Lloyd's Carrot Cake,Harlem,Manhattan,"1553 Lexington Ave, New York, NY 10029","pickup, delivery, & nationwide shipping",(212) 831-9156,https://www.lloydscarrotcake.com/,,,
LoLo's Seafood Shack,Harlem,Manhattan,"303 W 116th St, New York, NY 10026",pick up & delivery,(646)-649-3356,https://lolosseafoodshack.com/,,,
Make My Fish,Harlem,Manhattan,"120 W 116th St, New York, NY 10026",pickup + delivery,(917) 388-3138,,,,
Maison Harlem,Harlem,Manhattan,"341 Saint Nicholas Ave, New York, NY 10027",,,http://maisonharlem.com/,,,
Melba's ,Harlem,Manhattan,"300 W 114th St, New York, NY 10026",pick up & delivery ,(212) 864-7777,https://www.melbasrestaurant.com/,,,
Millie Peartree at Stingrays Catering ,Harlem,Manhattan," 2150 5th Ave, New York, NY 10037",Pre-order & Delivery,(718) 562-5104,https://milliepeartree.com/order-food/,,,
Miss Mamie's Spoonbread Too,Harlem,Manhattan,"366 W 110th St, New York, NY 10025",,(212) 865-6744,https://spoonbreadinc.com,,,
Oasis Jimma Juice Bar,Harlem,Manhattan,"3163 Broadway, New York, NY 10027",pickup + delivery,646-590-0685,https://oasis-jimma-juice-bar.business.site/,,,
Pikine,Harlem,Manhattan,"243 W 116th St, New York, NY 10026",Pickup & Delivery,(646) 922-7015,,,,
Ponty Bistro,Harlem,Manhattan,"2375 Adam Clayton Powell Jr Blvd, New York, NY 10030",pickup + delivery,(212) 234-6474,https://www.pontybistroharlemny.com/,,,
Renaissance Harlem,Harlem,Manhattan,"2245 Adam Clayton Powell Jr Blvd, New York, NY 10030",pickup + delivery,(646) 838-7604,https://renaissance-harlem.com/,,,
Reverence,Harlem,Manhattan,2592 Frederick Douglass Boulvevard ,Bento Boxes to go,,https://reverence.nyc/,,,
Ruby's Vintage,Harlem,Manhattan,"2340 Adam Clayton Powell Jr Blvd, New York, NY 10030",pickup + delivery,(646) 454-9899,https://www.rubysvintageharlem.com/,,,
Safari,Harlem,Manhattan,"219 W 116th St, New York, NY 10026","pickup, delivery, and donating meals",646-964-4252,http://safariharlem.com/,,,
Seasoned Vegan,Harlem,Manhattan,"55 St Nicholas Ave, New York, NY 10026","pickup, delivery, and shipping",(212) 222-0092,https://www.seasonedvegan.com,,,
Serengeti Teas & Spice Shop,Harlem,Manhattan,"22 E 125th St, New York, NY 10035",,212-837-1057,https://serengetiteasandspices.com,,,
Sisters Cuisine ,Harlem,Manhattan,"47 E 124th St, New York, NY 10035",pickup + delivery,(212) 410-3000,https://www.sisterscuisineharlem.com,,,
Sweet Mama's,Harlem,Manhattan,"689 Malcolm X Blvd, New York, NY 10039",pick up and delivery,(212) 939-9383,,,,
Sylvia's,Harlem,Manhattan,"328 Malcolm X Blvd, New York, NY 10027",pick up & delivery,212-996-0660,http://sylviasrestaurant.com/,,,
Teranga,Harlem,Manhattan,"1280 5th Ave, New York, NY 10029","pick up, delivery, catering",,itsteranga.com,,,
The Edge,Harlem,Manhattan,"101 Edgecombe Ave, New York, NY 10030",pickup + delivery,(212) 939-9688,https://www.theedgeharlem.com/,,,
Tsion Cafe,Harlem,Manhattan,763 St. Nicholas Avenue,pickup + delivery,(212) 234-2070,https://tsioncafe.com/,,,
Uptown Veg & Juice,Harlem,Manhattan,"52 E 125th St, New York, NY 10035",pickup + delivery,(212) 987-2660,https://www.facebook.com/Uptown-Veg-374509442644237,,,
Vinateria,Harlem,Manhattan,"2211 Frederick Douglass Blvd, New York, NY 10026",pick up & delivery,212-662-8462,https://www.vinaterianyc.com/location/vinateria/,,,
Yatenga,Harlem,Manhattan,"2269 Adam Clayton Powell Jr Blvd #1, New York, NY 10030",pick up & delivery,(212) 690-0699,http://www.yatengabistro.com/,,,
Zoma,Harlem,Manhattan,2084 Frederick Douglass Blvd (8th Ave),,(212) 662-0620,https://www.zomanyc.com/,,,
The Red Rooster,Harlem ,Manhattan,"310 Malcolm X Blvd, New York, NY 10027",closed,(212) 792-9001,redroosterharlem.com,,https://www.redroosterharlem.com/store,
Blossom Du Jour,Hells Kitchen ,Manhattan,"617 9th Ave, New York, NY 10036",closed,,http://blossomdujour.com/,,,
Omar's Kitchen and Rum Bar,Lower East Side,Manhattan,"29A Clinton St, New York, NY 10002",pickup + delivery,646) 866-6993,https://www.omarskitchennyc.com/,,,
Whipped Urban Dessert Lab,Lower East Side,Manhattan,"95 Orchard St, New York, NY 10002",pickup + delivery,,https://www.urbandessertlab.com/nychome,,,
Las' Lap,Lower East Side,Manhattan,"74 Orchard St, New York, NY 10002",pick up and delivery,(646) 484-6002,laslapnewyork.com,,,
Cheeky Sandwiches,Lower East Side,Manhattan,"35 Orchard St, New York, NY 10002",pick up and delivery,(646) 504-8132,https://www.cheekysandwiches.com/,,,
Scarr's Pizza,Lower East Side,Manhattan,"22 Orchard St, New York, NY 10002",pickup + delivery,(212) 334-3481,http://www.scarrspizza.com/,,,
Makina Cafe (food truck),,,,family-sized deliveries,(917) 426-5649,https://makina.menu/makinatogo/,,,
Tings Jamaican Jerk Chicken,Meatpacking District,Manhattan,"75 9th Ave New York, NY 10011",pickup and delivery,,,,,
Divine Flavored Nigerian Food Truck,Midtown East,Manhattan,"828 2nd Ave, New York, NY 10017",pickup + delivery,(718) 451-6330,https://www.divineflavoredcatering.com,,,
Freda's Caribbean & Soul Cuisine,Morningside Heights,Manhattan,"993 Columbus Ave, New York, NY 10025",pickup + delivery,(646) 438-9832,https://fredasnyc.com/,,,
Massawa,Morningside Heights,Manhattan,"1239 Amsterdam Ave, New York, NY 10027",pickup + delivery,(212) 663-0505,https://www.massawanyc.com/,,,open since 1988!
Something Catchy,Astoria,Queens,"23-14 36th Ave, Astoria, NY 11106",pre-ordered pans for delivery,718-576-9518,,,,
Jamaica Breeze,East Elmhurst,Queens,"103-02 Astoria Blvd. East Elmhurst, NY 11369",,,http://jamaicabreezenyc.com/index.html,,,
Queens Bully,Forest Hills,Queens,"113-30 Queens Blvd Forest Hills, NY 11375",,,http://queensbully.com/,,,
Island Cuisine & Catering,Jamaica,Queens,"153-35 Hillside Ave, Queens, NY 11432",,,http://islandcuisinecatering.com/,,,
The Door,Jamaica,Queens,"163-07 Baisley Blvd. Jamaica, NY 11434",,,http://thedoorrestaurant.nyc/,,,
Percy's Jerk Hut,Jamaica,Queens,"231-07 Merrick Blvd, Jamaica, NY 11413",pick up and delivery ,(718) 712-5910,Menu: https://www.allmenus.com/ny/jamaica/236594-percys-jerk-hut/menu/,,,
Di Juice ,Merrick,Queens,"24314 Merrick Blvd, Rosedale, NY 11422",pick up and delivery ,718 341 0703,dijuicesmoothies.com,,,
A Live Kitchen (Vegan) ,Merrick Blvd,Queens,"227-16 Merrick Blvd, Laurelton, NY 11413",pick up and delivery ,(718)470-2587,,,,
Milk & Pull,Ridgewood,Queens,"778 Seneca Ave, Ridgewood, NY 11385",,(718) 821-1155,https://www.milkandpull.com,,,
Last Dragon Pizza,Rockaway,Queens,N/A,pick up and ship,,http://www.lastdragonpizza.com/,,,
Dunns River Lounge & Restaurant,Rockville Centre,Queens,"93 N Park Ave, Rockville Centre, NY 11570",,,http://dunnsriverny.com/Home,,,
Henrica's ,Rosedale,Queens,"138-89 Francis Lewis Blvd, Rosedale, NY 11422",,(718) 527-7355,https://henricasrestaurant.com/,,,
Henrica’s Restaurant and Lounge,Rosedale,Queens,"138-89 Francis Lewis Blvd. Queens, NY",,,http://henricasrestaurant.com/,,,
Island Taste Caribbean Restaurant and Lounge,Rosedale,Queens,"243-10 Merrick Blvd Queens, NY 11422",,,http://islandtastelounge.com/,,,
Pa-Nash Eurosoul Restaurant and Lounge,Rosedale,Queens,"144-14 243rd St. Queens, NY 11422",,,http://panashnyc.com/public_html/,,,
Bayou,Clifton,Staten Island,"1072 Bay St, Staten Island, NY 10305",pickup + delivery ,(718) 273-4383,bayounyc.com,,,
Blaze Jamaican Restaurant,Tompkinsville,Staten Island,"3 Corson Ave, Staten Island, NY 10301",pickup + delivery ,(929) 464-2330,,,,
Chez Adja African Restaurant ,Tompkinsville,Staten Island,"226 Bay St, Staten Island, NY 10301",,,https://www.facebook.com/Chez-Adja-African-Restaurant-202367263733493/,,,
Koten's Caribbean and American Restaurant,Port Richmond,Staten Island,"537 Port Richmond Ave, Staten Island, NY 10302",pick up and delivery,(929) 364-1273,,,,
O'Henry's Publick House,Tompkinsville,Staten Island,"10 Minthorne St, Staten Island, NY 10301",pick up,(718) 442-6200,http://www.ohenryspub.com/,,,
Staten Island Fish and More,Tompkinsville,Staten Island,"137 Montgomery Ave, Staten Island, NY 10301",pick up and delivery,(718) 447-0936,,,,
TRI Lounge and Cafe,Concord,Staten Island,"1938 Clove Road, Staten Island, NY",pick up and delivery,(718) 442-5800,https://triloungeandcafe.com/,,,
,,,,,,http://www.sugarcanerestaurant.com/default.aspx?pageid=1,,,
